     3.01           N: GNSS NAV DATA    C: COMPASS          RINEX VERSION / TYPE
JPS2RIN v.2.0.99    JAVAD GNSS          20150707 012412 UTC PGM / RUN BY / DATE
    17                                                      LEAP SECONDS
BDSA   1.4901D-08  4.2468D-07 -3.3379D-06  6.1989D-06       IONOSPHERIC CORR
BDSB   1.2902D+05 -4.4237D+05  3.4079D+06 -2.1627D+06       IONOSPHERIC CORR
BDUT  3.7252902985D-09 2.042810365D-14      0  496          TIME SYSTEM CORR
                                                            END OF HEADER
C08 2015 07 06 06 00 14-7.125714328140D-04 3.357314426466D-12 0.000000000000D+00
     1.000000000000D+00-4.029218750000D+02 1.245051861408D-09-2.338827619135D+00
    -1.311255618930D-05 2.478668349795D-03-1.238659024239D-06 6.493889703751D+03
     1.080000000000D+05-1.955777406693D-08 2.753997911044D+00-1.541338860989D-07
     9.946756605309D-01 2.926718750000D+02-3.054035790861D+00-2.575107263554D-09
    -2.821546100149D-10 1.000000000000D+00 4.960000000000D+02 0.000000000000D+00
     2.000000000000D+00 0.000000000000D+00 1.480000033638D-08 0.000000000000D+00
     1.080000000000D+05 4.000000000000D+00
C09 2015 07 06 06 00 14 6.497132126242D-04-3.276401372432D-11-9.486769009248D-20
     4.000000000000D+00 3.615937500000D+02 1.712214177736D-09 1.051344266126D+00
     1.175142824650D-05 3.705175709911D-03 1.036748290062D-05 6.493359725952D+03
     1.080000000000D+05-1.676380634308D-08-1.393554949374D+00 1.252628862858D-07
     9.523172742370D-01-8.535937500000D+01-2.674304505094D+00-2.262594246132D-09
     6.878857960617D-10 1.000000000000D+00 4.960000000000D+02 0.000000000000D+00
     2.000000000000D+00 0.000000000000D+00 1.009999994750D-08 3.000000000000D+00
     1.080000000000D+05 4.000000000000D+00
C10 2015 07 06 06 00 14 2.307656686753D-04-1.279598649262D-11 0.000000000000D+00
     1.000000000000D+00 1.559531250000D+02 7.386021943175D-10-8.413476789251D-01
     4.558358341455D-06 3.522985847667D-03 2.297107130289D-05 6.493036985397D+03
     1.080000000000D+05 3.026798367500D-08 6.331122505236D-01 1.215375959873D-07
     9.440932856863D-01-4.510625000000D+02-2.842254652801D+00-1.795431929804D-09
    -5.893102614235D-10 1.000000000000D+00 4.960000000000D+02 0.000000000000D+00
     2.000000000000D+00 0.000000000000D+00 9.299999881307D-09 0.000000000000D+00
     1.080000000000D+05 4.000000000000D+00
C01 2015 07 06 07 00 14 1.299149589613D-04 3.172040408117D-11 0.000000000000D+00
     1.000000000000D+00 3.235000000000D+02 6.475984036443D-09-1.938040546139D-01
     1.081544905901D-05 3.532740520313D-04-1.494400203228D-05 6.493544944763D+03
     1.116000000000D+05-9.266659617424D-08-1.067579037546D+00 5.820766091347D-08
     6.550464103409D-02 4.536718750000D+02-7.231256262735D-01-5.583446858687D-09
     7.214586230761D-11 1.000000000000D+00 4.960000000000D+02 0.000000000000D+00
     2.000000000000D+00 0.000000000000D+00 1.420000028673D-08 0.000000000000D+00
     1.116270000000D+05 4.000000000000D+00
C02 2015 07 06 07 00 14 2.354150637984D-05 2.194155968027D-11 0.000000000000D+00
     1.000000000000D+00 5.482187500000D+02 6.428839215530D-09-5.775860171760D-01
     1.821806654334D-05 2.520494163036D-04-1.026736572385D-05 6.493432291031D+03
     1.116000000000D+05 5.122274160385D-08-1.309309087190D+00 4.889443516731D-08
     8.327480056970D-02 3.175781250000D+02-1.143723753874D+00-5.450941339301D-09
     2.607251459631D-11 1.000000000000D+00 4.960000000000D+02 0.000000000000D+00
     2.000000000000D+00 0.000000000000D+00 6.200000068901D-09 0.000000000000D+00
     1.116270000000D+05 4.000000000000D+00
C03 2015 07 06 07 00 14 2.563365269452D-04-8.308020937875D-12 0.000000000000D+00
     1.000000000000D+00 4.765156250000D+02 6.797783154954D-09 2.856196935038D+00
     1.591024920344D-05 3.284732811153D-04-7.844995707273D-06 6.493532884598D+03
     1.116000000000D+05-5.308538675308D-08-1.316783377039D+00 9.965151548386D-08
     5.931088580503D-02 2.428281250000D+02 2.244558203613D+00-5.982034890050D-09
     6.964575816824D-11 1.000000000000D+00 4.960000000000D+02 0.000000000000D+00
     2.000000000000D+00 0.000000000000D+00 7.100000143367D-09 0.000000000000D+00
     1.116270000000D+05 4.000000000000D+00
C04 2015 07 06 07 00 14-2.547343028709D-04 2.170708057747D-11 0.000000000000D+00
     1.000000000000D+00 5.569062500000D+02 5.871673150184D-09-3.572193449910D-02
     1.845229417086D-05 7.375287823379D-04-5.113892257214D-06 6.493442276001D+03
     1.116000000000D+05-9.313225746155D-08-1.337421739612D+00-6.053596735001D-08
     7.353927970904D-02 1.529218750000D+02-2.634334648555D-01-4.835558563281D-09
     1.025042697143D-10 1.000000000000D+00 4.960000000000D+02 0.000000000000D+00
     2.000000000000D+00 0.000000000000D+00 6.400000085449D-09 0.000000000000D+00
     1.116270000000D+05 4.000000000000D+00
C05 2015 07 06 07 00 14-3.756980877370D-04-9.990230864787D-12 0.000000000000D+00
     1.000000000000D+00 5.336093750000D+02 6.445982786771D-09-1.250442758783D+00
     1.773331314325D-05 2.063582651317D-04-1.284154132009D-05 6.493523559570D+03
     1.116000000000D+05 3.399327397346D-08-1.304208247337D+00 3.818422555923D-08
     6.658791431677D-02 3.999375000000D+02-8.466333145901D-01-5.333079287016D-09
     1.107188976008D-11 1.000000000000D+00 4.960000000000D+02 0.000000000000D+00
     2.000000000000D+00 0.000000000000D+00 3.200000042725D-09 0.000000000000D+00
     1.116270000000D+05 4.000000000000D+00
C06 2015 07 06 07 00 14 1.464098459110D-04-3.084554833777D-11-3.022213555803D-18
     6.000000000000D+00 2.647031250000D+02 1.485776174256D-09 1.675593014923D+00
     9.090639650822D-06 4.090173635632D-03 1.287041231990D-05 6.493164686203D+03
     1.116000000000D+05-2.114102244377D-07-1.432854843561D+00 8.195638656616D-08
     9.468713246942D-01-1.656250000000D+02-2.583503384532D+00-2.198305853977D-09
     7.632460779770D-10 1.000000000000D+00 4.960000000000D+02 0.000000000000D+00
     2.000000000000D+00 0.000000000000D+00 1.049999998060D-08 5.000000000000D+00
     1.116000000000D+05 4.000000000000D+00
C07 2015 07 06 07 00 14 3.387092147022D-05 1.570299446030D-12 0.000000000000D+00
     1.000000000000D+00 1.241875000000D+02 7.396736675201D-10-2.228212380618D-01
     3.572087734938D-06 3.740775748156D-03 2.006674185395D-05 6.493022151947D+03
     1.116000000000D+05-6.798654794693D-08 6.428277820717D-01 1.955777406693D-08
     9.424114185098D-01-3.826875000000D+02-2.777097365572D+00-1.899364830455D-09
    -5.525230148013D-10 1.000000000000D+00 4.960000000000D+02 0.000000000000D+00
     2.000000000000D+00 0.000000000000D+00 1.729999965505D-08 0.000000000000D+00
     1.116000000000D+05 4.000000000000D+00
C09 2015 07 06 07 00 14 6.495952839032D-04-3.276490190274D-11-9.486769009248D-20
     5.000000000000D+00 3.457343750000D+02 1.641496946365D-09 1.312948524548D+00
     1.129275187850D-05 3.706059069373D-03 1.136679202318D-05 6.493368291855D+03
     1.116000000000D+05-4.749745130539D-08-1.393563268990D+00 1.471489667892D-07
     9.523197641236D-01-1.195781250000D+02-2.673382129394D+00-2.256522564651D-09
     7.025292631637D-10 1.000000000000D+00 4.960000000000D+02 0.000000000000D+00
     2.000000000000D+00 0.000000000000D+00 1.009999994750D-08 4.000000000000D+00
     1.116000000000D+05 4.000000000000D+00
C10 2015 07 06 07 00 14 2.307180548087D-04-1.299671481547D-11 0.000000000000D+00
     1.000000000000D+00 1.194687500000D+02 6.878857960617D-10-5.778178267861D-01
     3.289431333542D-06 3.527973894961D-03 2.111541107297D-05 6.493051694870D+03
     1.116000000000D+05-4.190951585770D-08 6.331058561087D-01 1.066364347935D-07
     9.440910064599D-01-3.982500000000D+02-2.843222529642D+00-1.815075605185D-09
    -5.846672108790D-10 1.000000000000D+00 4.960000000000D+02 0.000000000000D+00
     2.000000000000D+00 0.000000000000D+00 9.299999881307D-09 0.000000000000D+00
     1.116000000000D+05 4.000000000000D+00
C01 2015 07 06 08 00 14 1.300293952227D-04 3.175060214744D-11 0.000000000000D+00
     1.000000000000D+00 5.001562500000D+01 6.053823594624D-09 7.212624713627D-02
     1.665670424700D-06 3.471708623692D-04-1.874566078186D-05 6.493529953003D+03
     1.152000000000D+05-4.610046744347D-08-7.424101254588D-01 1.001171767712D-07
     7.123619899934D-02 5.665781250000D+02-1.051481806758D+00-5.064139513166D-09
    -3.500145795122D-11 1.000000000000D+00 4.960000000000D+02 0.000000000000D+00
     2.000000000000D+00 0.000000000000D+00 1.420000028673D-08 0.000000000000D+00
     1.152270000000D+05 4.000000000000D+00
C02 2015 07 06 08 00 14 2.362148370594D-05 2.207212190797D-11 0.000000000000D+00
     1.000000000000D+00 3.074531250000D+02 6.243117193748D-09-3.098368679149D-01
     1.035630702972D-05 2.588005736470D-04-1.590419560671D-05 6.493448875427D+03
     1.152000000000D+05 7.823109626770D-08-1.033562540760D+00 4.796311259270D-08
     8.290808211726D-02 4.832031250000D+02-1.424655038509D+00-5.366294956296D-09
    -7.678891285216D-11 1.000000000000D+00 4.960000000000D+02 0.000000000000D+00
     2.000000000000D+00 0.000000000000D+00 6.200000068901D-09 0.000000000000D+00
     1.152270000000D+05 4.000000000000D+00
C03 2015 07 06 08 00 14 2.563076559454D-04-8.159695141785D-12 0.000000000000D+00
     1.000000000000D+00 1.711562500000D+02 6.527057592433D-09 3.118653906465D+00
     5.871988832951D-06 3.280512755737D-04-1.655239611864D-05 6.493533901215D+03
     1.152000000000D+05-1.862645149231D-09-9.317693419446D-01 1.173466444016D-07
     6.003708419125D-02 5.017968750000D+02 1.859909001270D+00-5.712380800732D-09
    -3.964450849577D-11 1.000000000000D+00 4.960000000000D+02 0.000000000000D+00
     2.000000000000D+00 0.000000000000D+00 7.100000143367D-09 0.000000000000D+00
     1.152270000000D+05 4.000000000000D+00
